{
    "links": {
        "self": "http://www.neowsapp.com/rest/v1/neo/3802009?api_key=iIulBulltgU6a56xZRHN4H3l9WmuAYTsLGpBGhQ2"
    },
    "id": "3802009",
    "neo_reference_id": "3802009",
    "name": "(2018 FC2)",
    "designation": "2018 FC2",
    "nasa_jpl_url": "http://ssd.jpl.nasa.gov/sbdb.cgi?sstr=3802009",
    "absolute_magnitude_h": 24.7,
    "estimated_diameter": {
        "kilometers": {
            "estimated_diameter_min": 0.0305179233,
            "estimated_diameter_max": 0.0682401509
        },
        "meters": {
            "estimated_diameter_min": 30.5179232594,
            "estimated_diameter_max": 68.2401509401
        },
        "miles": {
            "estimated_diameter_min": 0.0189629525,
            "estimated_diameter_max": 0.0424024508
        },
        "feet": {
            "estimated_diameter_min": 100.1244233463,
            "estimated_diameter_max": 223.8850168104
        }
    },
    "is_potentially_hazardous_asteroid": false,
    "close_approach_data": [
        {
            "close_approach_date": "2018-03-12",
            "close_approach_date_full": "2018-Mar-12 14:43",
            "epoch_date_close_approach": 1520865780000,
            "relative_velocity": {
                "kilometers_per_second": "11.2597121514",
                "kilometers_per_hour": "40534.963745184",
                "miles_per_hour": "25186.8501115561"
            },
            "miss_distance": {
                "astronomical": "0.0379626549",
                "lunar": "14.7674727561",
                "kilometers": "5679132.312585063",
                "miles": "3528849.1841293494"
            },
            "orbiting_body": "Earth"
        }
    ],
    "orbital_data": {
        "orbit_id": "10",
        "orbit_determination_date": "2018-04-08 06:26:27",
        "first_observation_date": "2018-03-18",
        "last_observation_date": "2018-04-08",
        "data_arc_in_days": 21,
        "observations_used": 39,
        "orbit_uncertainty": "8",
        "minimum_orbit_intersection": ".012824",
        "jupiter_tisserand_invariant": "3.401",
        "epoch_osculation": "2458205.5",
        "eccentricity": ".560125785288658",
        "semi_major_axis": "2.209413282636907",
        "inclination": "14.28992277691618",
        "ascending_node_longitude": "178.3619498284442",
        "orbital_period": "1199.537605790739",
        "perihelion_distance": ".9718639326727178",
        "perihelion_argument": "333.307648061953",
        "aphelion_distance": "3.446962632601096",
        "perihelion_time": "2458172.936915870213",
        "mean_anomaly": "9.772690935350607",
        "mean_motion": ".3001156431129035",
        "equinox": "J2000",
        "orbit_class": {
            "orbit_class_type": "APO",
            "orbit_class_description": "Near-Earth asteroid orbits which cross the Earth’s orbit similar to that of 1862 Apollo",
            "orbit_class_range": "a (semi-major axis) > 1.0 AU; q (perihelion) < 1.017 AU"
        }
    },
    "is_sentry_object": false
}